[
  {
    "COMMENT": "GENERATED VIA SPACETRACK.ORG API",
    "ORIGINATOR": "18 SPCS",
    "NORAD_CAT_ID": "46984",
    "OBJECT_NAME": "S6 MICHAEL FREILICH",
    "OBJECT_TYPE": "PAYLOAD",
    "CLASSIFICATION_TYPE": "U",
    "INTLDES": "20086A",
    "EPOCH": "2021-02-15 09:40:43",
    "EPOCH_MICROSECONDS": "544064",
    "MEAN_MOTION": "12.80931243",
    "ECCENTRICITY": "0.000784",
    "INCLINATION": "66.0397",
    "RA_OF_ASC_NODE": "220.6532",
    "ARG_OF_PERICENTER": "265.061",
    "MEAN_ANOMALY": "94.9517",
    "EPHEMERIS_TYPE": "0",
    "ELEMENT_SET_NO": "999",
    "REV_AT_EPOCH": "1098",
    "BSTAR": "0",
    "MEAN_MOTION_DOT": "-0.00000061",
    "MEAN_MOTION_DDOT": "0",
    "FILE": "2963045",
    "TLE_LINE0": "0 S6 MICHAEL FREILICH",
    "TLE_LINE1": "1 46984U 20086A   21046.40328176 -.00000061  00000-0  00000-0 0  9999",
    "TLE_LINE2": "2 46984  66.0397 220.6532 0007840 265.0610  94.9517 12.80931243 10989",
    "OBJECT_ID": "2020-086A",
    "OBJECT_NUMBER": "46984",
    "SEMIMAJOR_AXIS": "7715.865",
    "PERIOD": "112.418",
    "APOGEE": "1343.779",
    "PERIGEE": "1331.681",
    "DECAYED": "0"
  },
  {
    "COMMENT": "GENERATED VIA SPACETRACK.ORG API",
    "ORIGINATOR": "18 SPCS",
    "NORAD_CAT_ID": "46984",
    "OBJECT_NAME": "S6 MICHAEL FREILICH",
    "OBJECT_TYPE": "PAYLOAD",
    "CLASSIFICATION_TYPE": "U",
    "INTLDES": "20086A",
    "EPOCH": "2021-02-15 11:33:09",
    "EPOCH_MICROSECONDS": "285408",
    "MEAN_MOTION": "12.80931238",
    "ECCENTRICITY": "0.0007839",
    "INCLINATION": "66.0396",
    "RA_OF_ASC_NODE": "220.4906",
    "ARG_OF_PERICENTER": "265.109",
    "MEAN_ANOMALY": "94.9031",
    "EPHEMERIS_TYPE": "0",
    "ELEMENT_SET_NO": "999",
    "REV_AT_EPOCH": "1099",
    "BSTAR": "0",
    "MEAN_MOTION_DOT": "-0.00000061",
    "MEAN_MOTION_DDOT": "0",
    "FILE": "2963362",
    "TLE_LINE0": "0 S6 MICHAEL FREILICH",
    "TLE_LINE1": "1 46984U 20086A   21046.48135747 -.00000061  00000-0  00000-0 0  9997",
    "TLE_LINE2": "2 46984  66.0396 220.4906 0007839 265.1090  94.9031 12.80931238 10998",
    "OBJECT_ID": "2020-086A",
    "OBJECT_NUMBER": "46984",
    "SEMIMAJOR_AXIS": "7715.865",
    "PERIOD": "112.418",
    "APOGEE": "1343.779",
    "PERIGEE": "1331.682",
    "DECAYED": "0"
  },
  {
    "COMMENT": "GENERATED VIA SPACETRACK.ORG API",
    "ORIGINATOR": "18 SPCS",
    "NORAD_CAT_ID": "46984",
    "OBJECT_NAME": "S6 MICHAEL FREILICH",
    "OBJECT_TYPE": "PAYLOAD",
    "CLASSIFICATION_TYPE": "U",
    "INTLDES": "20086A",
    "EPOCH": "2021-02-16 08:09:52",
    "EPOCH_MICROSECONDS": "560288",
    "MEAN_MOTION": "12.8093139",
    "ECCENTRICITY": "0.0007771",
    "INCLINATION": "66.0407",
    "RA_OF_ASC_NODE": "218.7061",
    "ARG_OF_PERICENTER": "265.2544",
    "MEAN_ANOMALY": "94.7581",
    "EPHEMERIS_TYPE": "0",
    "ELEMENT_SET_NO": "999",
    "REV_AT_EPOCH": "1110",
    "BSTAR": "0",
    "MEAN_MOTION_DOT": "-0.00000061",
    "MEAN_MOTION_DDOT": "0",
    "FILE": "2964226",
    "TLE_LINE0": "0 S6 MICHAEL FREILICH",
    "TLE_LINE1": "1 46984U 20086A   21047.34019167 -.00000061  00000-0  00000-0 0  9990",
    "TLE_LINE2": "2 46984  66.0407 218.7061 0007771 265.2544  94.7581 12.80931390 11104",
    "OBJECT_ID": "2020-086A",
    "OBJECT_NUMBER": "46984",
    "SEMIMAJOR_AXIS": "7715.865",
    "PERIOD": "112.418",
    "APOGEE": "1343.726",
    "PERIGEE": "1331.734",
    "DECAYED": "0"
  },
  {
    "COMMENT": "GENERATED VIA SPACETRACK.ORG API",
    "ORIGINATOR": "18 SPCS",
    "NORAD_CAT_ID": "46984",
    "OBJECT_NAME": "S6 MICHAEL FREILICH",
    "OBJECT_TYPE": "PAYLOAD",
    "CLASSIFICATION_TYPE": "U",
    "INTLDES": "20086A",
    "EPOCH": "2021-02-16 10:02:18",
    "EPOCH_MICROSECONDS": "318912",
    "MEAN_MOTION": "12.80931441",
    "ECCENTRICITY": "0.000777",
    "INCLINATION": "66.041",
    "RA_OF_ASC_NODE": "218.5438",
    "ARG_OF_PERICENTER": "265.2655",
    "MEAN_ANOMALY": "94.7478",
    "EPHEMERIS_TYPE": "0",
    "ELEMENT_SET_NO": "999",
    "REV_AT_EPOCH": "1111",
    "BSTAR": "0",
    "MEAN_MOTION_DOT": "-0.00000061",
    "MEAN_MOTION_DDOT": "0",
    "FILE": "2964189",
    "TLE_LINE0": "0 S6 MICHAEL FREILICH",
    "TLE_LINE1": "1 46984U 20086A   21047.41826758 -.00000061  00000-0  00000+0 0  9999",
    "TLE_LINE2": "2 46984  66.0410 218.5438 0007770 265.2655  94.7478 12.80931441 11119",
    "OBJECT_ID": "2020-086A",
    "OBJECT_NUMBER": "46984",
    "SEMIMAJOR_AXIS": "7715.864",
    "PERIOD": "112.418",
    "APOGEE": "1343.725",
    "PERIGEE": "1331.734",
    "DECAYED": "0"
  },
  {
    "COMMENT": "GENERATED VIA SPACETRACK.ORG API",
    "ORIGINATOR": "18 SPCS",
    "NORAD_CAT_ID": "46984",
    "OBJECT_NAME": "S6 MICHAEL FREILICH",
    "OBJECT_TYPE": "PAYLOAD",
    "CLASSIFICATION_TYPE": "U",
    "INTLDES": "20086A",
    "EPOCH": "2021-02-17 04:46:35",
    "EPOCH_MICROSECONDS": "844672",
    "MEAN_MOTION": "12.80931448",
    "ECCENTRICITY": "0.0007757",
    "INCLINATION": "66.0408",
    "RA_OF_ASC_NODE": "216.9222",
    "ARG_OF_PERICENTER": "265.1377",
    "MEAN_ANOMALY": "94.8753",
    "EPHEMERIS_TYPE": "0",
    "ELEMENT_SET_NO": "999",
    "REV_AT_EPOCH": "1121",
    "BSTAR": "0",
    "MEAN_MOTION_DOT": "-0.00000061",
    "MEAN_MOTION_DDOT": "0",
    "FILE": "2965038",
    "TLE_LINE0": "0 S6 MICHAEL FREILICH",
    "TLE_LINE1": "1 46984U 20086A   21048.19902598 -.00000061  00000-0  00000+0 0  9992",
    "TLE_LINE2": "2 46984  66.0408 216.9222 0007757 265.1377  94.8753 12.80931448 11219",
    "OBJECT_ID": "2020-086A",
    "OBJECT_NUMBER": "46984",
    "SEMIMAJOR_AXIS": "7715.864",
    "PERIOD": "112.418",
    "APOGEE": "1343.715",
    "PERIGEE": "1331.744",
    "DECAYED": "0"
  },
  {
    "COMMENT": "GENERATED VIA SPACETRACK.ORG API",
    "ORIGINATOR": "18 SPCS",
    "NORAD_CAT_ID": "46984",
    "OBJECT_NAME": "S6 MICHAEL FREILICH",
    "OBJECT_TYPE": "PAYLOAD",
    "CLASSIFICATION_TYPE": "U",
    "INTLDES": "20086A",
    "EPOCH": "2021-02-17 04:46:35",
    "EPOCH_MICROSECONDS": "844672",
    "MEAN_MOTION": "12.80931448",
    "ECCENTRICITY": "0.0007757",
    "INCLINATION": "66.0408",
    "RA_OF_ASC_NODE": "216.9222",
    "ARG_OF_PERICENTER": "265.1377",
    "MEAN_ANOMALY": "94.8753",
    "EPHEMERIS_TYPE": "0",
    "ELEMENT_SET_NO": "999",
    "REV_AT_EPOCH": "1121",
    "BSTAR": "0",
    "MEAN_MOTION_DOT": "-0.00000061",
    "MEAN_MOTION_DDOT": "0",
    "FILE": "2965465",
    "TLE_LINE0": "0 S6 MICHAEL FREILICH",
    "TLE_LINE1": "1 46984U 20086A   21048.19902598 -.00000061  00000-0  00000+0 0  9992",
    "TLE_LINE2": "2 46984  66.0408 216.9222 0007757 265.1377  94.8753 12.80931448 11219",
    "OBJECT_ID": "2020-086A",
    "OBJECT_NUMBER": "46984",
    "SEMIMAJOR_AXIS": "7715.864",
    "PERIOD": "112.418",
    "APOGEE": "1343.715",
    "PERIGEE": "1331.744",
    "DECAYED": "0"
  },
  {
    "COMMENT": "GENERATED VIA SPACETRACK.ORG API",
    "ORIGINATOR": "18 SPCS",
    "NORAD_CAT_ID": "46984",
    "OBJECT_NAME": "S6 MICHAEL FREILICH",
    "OBJECT_TYPE": "PAYLOAD",
    "CLASSIFICATION_TYPE": "U",
    "INTLDES": "20086A",
    "EPOCH": "2021-02-17 16:01:10",
    "EPOCH_MICROSECONDS": "363584",
    "MEAN_MOTION": "12.80931458",
    "ECCENTRICITY": "0.0007761",
    "INCLINATION": "66.041",
    "RA_OF_ASC_NODE": "215.9494",
    "ARG_OF_PERICENTER": "265.1335",
    "MEAN_ANOMALY": "94.8794",
    "EPHEMERIS_TYPE": "0",
    "ELEMENT_SET_NO": "999",
    "REV_AT_EPOCH": "1127",
    "BSTAR": "0",
    "MEAN_MOTION_DOT": "-0.00000061",
    "MEAN_MOTION_DDOT": "0",
    "FILE": "2965850",
    "TLE_LINE0": "0 S6 MICHAEL FREILICH",
    "TLE_LINE1": "1 46984U 20086A   21048.66748106 -.00000061  00000-0  00000-0 0  9998",
    "TLE_LINE2": "2 46984  66.0410 215.9494 0007761 265.1335  94.8794 12.80931458 11273",
    "OBJECT_ID": "2020-086A",
    "OBJECT_NUMBER": "46984",
    "SEMIMAJOR_AXIS": "7715.864",
    "PERIOD": "112.418",
    "APOGEE": "1343.718",
    "PERIGEE": "1331.741",
    "DECAYED": "0"
  },
  {
    "COMMENT": "GENERATED VIA SPACETRACK.ORG API",
    "ORIGINATOR": "18 SPCS",
    "NORAD_CAT_ID": "46984",
    "OBJECT_NAME": "S6 MICHAEL FREILICH",
    "OBJECT_TYPE": "PAYLOAD",
    "CLASSIFICATION_TYPE": "U",
    "INTLDES": "20086A",
    "EPOCH": "2021-02-18 05:08:10",
    "EPOCH_MICROSECONDS": "651488",
    "MEAN_MOTION": "12.80931449",
    "ECCENTRICITY": "0.0007743",
    "INCLINATION": "66.0409",
    "RA_OF_ASC_NODE": "214.8141",
    "ARG_OF_PERICENTER": "265.3038",
    "MEAN_ANOMALY": "94.7096",
    "EPHEMERIS_TYPE": "0",
    "ELEMENT_SET_NO": "999",
    "REV_AT_EPOCH": "1134",
    "BSTAR": "0",
    "MEAN_MOTION_DOT": "-0.00000061",
    "MEAN_MOTION_DDOT": "0",
    "FILE": "2966537",
    "TLE_LINE0": "0 S6 MICHAEL FREILICH",
    "TLE_LINE1": "1 46984U 20086A   21049.21401217 -.00000061  00000-0  00000+0 0  9998",
    "TLE_LINE2": "2 46984  66.0409 214.8141 0007743 265.3038  94.7096 12.80931449 11342",
    "OBJECT_ID": "2020-086A",
    "OBJECT_NUMBER": "46984",
    "SEMIMAJOR_AXIS": "7715.864",
    "PERIOD": "112.418",
    "APOGEE": "1343.704",
    "PERIGEE": "1331.755",
    "DECAYED": "0"
  }
]